*******************************************************************************
Ephemeris / WWW_USER Mon Mar 10 08:34:25 2025 Pasadena, USA      / Horizons    
*******************************************************************************
Target body name: (2017 UW51)                     {source: JPL#9}
Center body name: Earth (399)                     {source: DE441}
Center-site name: Mauna Kea
*******************************************************************************
Start time      : A.D. 2019-Jan-22 04:17:00.0000 UT      
Stop  time      : A.D. 2019-Jan-22 16:49:00.0000 UT      
Step-size       : 1 minutes
*******************************************************************************
Target pole/equ : undefined
Target radii    : undefined                                                    
Center geodetic : 204.5278, 19.8260847, 4.21024   {E-lon(deg),Lat(deg),Alt(km)}
Center cylindric: 204.5278, 6006.35451, 2151.0229 {E-lon(deg),Dxy(km),Dz(km)}
Center pole/equ : ITRF93                          {East-longitude positive}
Center radii    : 6378.137, 6378.137, 6356.752 km {Equator_a, b, pole_c}       
Target primary  : Sun
Vis. interferer : MOON (R_eq= 1737.400) km        {source: DE441}
Rel. light bend : Sun                             {source: DE441}
Rel. lght bnd GM: 1.3271E+11 km^3/s^2                                          
Small-body perts: Yes                             {source: SB441-N16}
Atmos refraction: NO (AIRLESS)
RA format       : HMS
Time format     : CAL 
Calendar mode   : Mixed Julian/Gregorian
RTS-only print  : NO       
EOP file        : eop.250307.p250603                                           
EOP coverage    : DATA-BASED 1962-JAN-20 TO 2025-MAR-07. PREDICTS-> 2025-JUN-02
Units conversion: 1 au= 149597870.700 km, c= 299792.458 km/s, 1 day= 86400.0 s 
Table cut-offs 1: Elevation (-90.0deg=NO ),Airmass (>38.000=NO), Daylight (YES)
Table cut-offs 2: Solar elongation (  0.0,180.0=NO ),Local Hour Angle( 0.0=NO )
Table cut-offs 3: RA/DEC angular rate (     0.0=NO )                           
*******************************************************************************
Initial IAU76/J2000 heliocentric ecliptic osculating elements (au, days, deg.):
  EPOCH=  2458075.5 ! 2017-Nov-18.00 (TDB)         Residual RMS= .20188        
   EC= .977323227404683    QR= 3.132710376610715   TP= 2458155.1551369466      
   OM= 241.7154477774366   W=  216.6888678209022   IN= 144.2025603349357       
  Equivalent ICRF heliocentric cartesian coordinates (au, au/d):
   X= 2.139353138138251E+00  Y= 2.375029509283225E+00  Z= 4.232007070438896E-01
  VX= 5.707101564767909E-03 VY=-6.350221743649190E-03 VZ=-1.041670648532765E-02
Asteroid physical parameters (km, seconds, rotational period in hours):        
   GM= n.a.                RAD= n.a.               ROTPER= n.a.                
   H= 15.3                 G= .150                 B-V= n.a.                   
                           ALBEDO= n.a.            STYP= n.a.                  
*******************************************************************************
 Date__(UT)__HR:MN     R.A._________(ICRF)_________DEC
******************************************************
$$SOE
 2019-Jan-22 04:17 C   21 39 46.273985 -44 27 46.70699
 2019-Jan-22 04:18 C   21 39 46.290104 -44 27 46.55353
 2019-Jan-22 04:19 C   21 39 46.306226 -44 27 46.40006
 2019-Jan-22 04:20 C   21 39 46.322350 -44 27 46.24658
 2019-Jan-22 04:21 C   21 39 46.338477 -44 27 46.09309
 2019-Jan-22 04:22 C   21 39 46.354607 -44 27 45.93960
 2019-Jan-22 04:23 C   21 39 46.370739 -44 27 45.78611
 2019-Jan-22 04:24 C   21 39 46.386874 -44 27 45.63261
 2019-Jan-22 04:25 C   21 39 46.403011 -44 27 45.47910
 2019-Jan-22 04:26 C   21 39 46.419151 -44 27 45.32558
 2019-Jan-22 04:27 C   21 39 46.435294 -44 27 45.17207
 2019-Jan-22 04:28 C   21 39 46.451440 -44 27 45.01854
 2019-Jan-22 04:29 C   21 39 46.467588 -44 27 44.86501
 2019-Jan-22 04:30 C   21 39 46.483739 -44 27 44.71147
 2019-Jan-22 04:31 N   21 39 46.499892 -44 27 44.55793
 2019-Jan-22 04:32 N   21 39 46.516048 -44 27 44.40438
 2019-Jan-22 04:33 N   21 39 46.532207 -44 27 44.25083
 2019-Jan-22 04:34 N   21 39 46.548369 -44 27 44.09728
 2019-Jan-22 04:35 N   21 39 46.564533 -44 27 43.94371
 2019-Jan-22 04:36 N   21 39 46.580701 -44 27 43.79015
 2019-Jan-22 04:37 N   21 39 46.596870 -44 27 43.63657
 2019-Jan-22 04:38 N   21 39 46.613043 -44 27 43.48300
 2019-Jan-22 04:39 N   21 39 46.629218 -44 27 43.32941
 2019-Jan-22 04:40 N   21 39 46.645396 -44 27 43.17583
 2019-Jan-22 04:41 N   21 39 46.661577 -44 27 43.02224
 2019-Jan-22 04:42 N   21 39 46.677760 -44 27 42.86864
 2019-Jan-22 04:43 N   21 39 46.693946 -44 27 42.71504
 2019-Jan-22 04:44 N   21 39 46.710135 -44 27 42.56144
 2019-Jan-22 04:45 N   21 39 46.726327 -44 27 42.40783
 2019-Jan-22 04:46 N   21 39 46.742522 -44 27 42.25422
 2019-Jan-22 04:47 N   21 39 46.758719 -44 27 42.10060
 2019-Jan-22 04:48 N   21 39 46.774919 -44 27 41.94698
 2019-Jan-22 04:49 N   21 39 46.791121 -44 27 41.79336
 2019-Jan-22 04:50 N   21 39 46.807327 -44 27 41.63973
 2019-Jan-22 04:51 N   21 39 46.823535 -44 27 41.48610
 2019-Jan-22 04:52 Ns  21 39 46.839746 -44 27 41.33246
 2019-Jan-22 04:53 N   21 39 46.855960 -44 27 41.17882
 2019-Jan-22 04:54 N   21 39 46.872177 -44 27 41.02518
 2019-Jan-22 04:55 N   21 39 46.888396 -44 27 40.87153
 2019-Jan-22 04:56 N   21 39 46.904618 -44 27 40.71788
 2019-Jan-22 04:57 N   21 39 46.920843 -44 27 40.56423
 2019-Jan-22 04:58 Am  21 39 46.937071 -44 27 40.41058
 2019-Jan-22 04:59 Am  21 39 46.953301 -44 27 40.25692
 2019-Jan-22 05:00 Am  21 39 46.969535 -44 27 40.10326
 2019-Jan-22 05:01 Am  21 39 46.985771 -44 27 39.94959
 2019-Jan-22 05:02 Am  21 39 47.002010 -44 27 39.79593
 2019-Jan-22 05:03 Am  21 39 47.018252 -44 27 39.64226
 2019-Jan-22 05:04 Am  21 39 47.034496 -44 27 39.48858
 2019-Jan-22 05:05 Am  21 39 47.050744 -44 27 39.33491
 2019-Jan-22 05:06 Am  21 39 47.066994 -44 27 39.18123
 2019-Jan-22 05:07 Am  21 39 47.083247 -44 27 39.02755
 2019-Jan-22 05:08 Am  21 39 47.099503 -44 27 38.87387
 2019-Jan-22 05:09 Am  21 39 47.115762 -44 27 38.72019
 2019-Jan-22 05:10 Am  21 39 47.132023 -44 27 38.56651
 2019-Jan-22 05:11 Am  21 39 47.148287 -44 27 38.41282
 2019-Jan-22 05:12 Am  21 39 47.164555 -44 27 38.25913
 2019-Jan-22 05:13 Am  21 39 47.180825 -44 27 38.10544
 2019-Jan-22 05:14 Am  21 39 47.197098 -44 27 37.95175
 2019-Jan-22 05:15 Am  21 39 47.213373 -44 27 37.79805
 2019-Jan-22 05:16 Am  21 39 47.229652 -44 27 37.64436
 2019-Jan-22 05:17 Am  21 39 47.245933 -44 27 37.49066
 2019-Jan-22 05:18 Am  21 39 47.262217 -44 27 37.33696
 2019-Jan-22 05:19 Am  21 39 47.278505 -44 27 37.18326
 2019-Jan-22 05:20 Am  21 39 47.294795 -44 27 37.02956
 2019-Jan-22 05:21 Am  21 39 47.311087 -44 27 36.87586
 2019-Jan-22 05:22 Am  21 39 47.327383 -44 27 36.72216
 2019-Jan-22 05:23 Am  21 39 47.343682 -44 27 36.56845
 2019-Jan-22 05:24 Am  21 39 47.359983 -44 27 36.41475
 2019-Jan-22 05:25  m  21 39 47.376287 -44 27 36.26104
 2019-Jan-22 05:26  m  21 39 47.392594 -44 27 36.10734
 2019-Jan-22 05:27  m  21 39 47.408904 -44 27 35.95363
 2019-Jan-22 05:28  m  21 39 47.425217 -44 27 35.79993
 2019-Jan-22 05:29  m  21 39 47.441533 -44 27 35.64622
 2019-Jan-22 05:30  m  21 39 47.457851 -44 27 35.49251
 2019-Jan-22 05:31  m  21 39 47.474173 -44 27 35.33881
 2019-Jan-22 05:32  m  21 39 47.490497 -44 27 35.18510
 2019-Jan-22 05:33  m  21 39 47.506824 -44 27 35.03139
 2019-Jan-22 05:34  m  21 39 47.523154 -44 27 34.87768
 2019-Jan-22 05:35  m  21 39 47.539487 -44 27 34.72398
 2019-Jan-22 05:36  m  21 39 47.555823 -44 27 34.57027
 2019-Jan-22 05:37  m  21 39 47.572162 -44 27 34.41657
 2019-Jan-22 05:38  m  21 39 47.588503 -44 27 34.26286
 2019-Jan-22 05:39  m  21 39 47.604848 -44 27 34.10915
 2019-Jan-22 05:40  m  21 39 47.621195 -44 27 33.95545
 2019-Jan-22 05:41  m  21 39 47.637545 -44 27 33.80175
 2019-Jan-22 05:42  m  21 39 47.653898 -44 27 33.64804
 2019-Jan-22 05:43  m  21 39 47.670254 -44 27 33.49434
 2019-Jan-22 05:44  m  21 39 47.686613 -44 27 33.34064
 2019-Jan-22 05:45  m  21 39 47.702975 -44 27 33.18694
 2019-Jan-22 05:46  m  21 39 47.719340 -44 27 33.03324
 2019-Jan-22 05:47  m  21 39 47.735707 -44 27 32.87955
 2019-Jan-22 05:48  m  21 39 47.752077 -44 27 32.72585
 2019-Jan-22 05:49  m  21 39 47.768451 -44 27 32.57216
 2019-Jan-22 05:50  m  21 39 47.784827 -44 27 32.41847
 2019-Jan-22 05:51  m  21 39 47.801206 -44 27 32.26477
 2019-Jan-22 05:52  m  21 39 47.817588 -44 27 32.11109
 2019-Jan-22 05:53  m  21 39 47.833973 -44 27 31.95740
 2019-Jan-22 05:54  m  21 39 47.850361 -44 27 31.80371
 2019-Jan-22 05:55  m  21 39 47.866751 -44 27 31.65003
 2019-Jan-22 05:56  m  21 39 47.883145 -44 27 31.49635
 2019-Jan-22 05:57  m  21 39 47.899541 -44 27 31.34267
 2019-Jan-22 05:58  m  21 39 47.915940 -44 27 31.18899
 2019-Jan-22 05:59  m  21 39 47.932343 -44 27 31.03532
 2019-Jan-22 06:00  m  21 39 47.948748 -44 27 30.88165
 2019-Jan-22 06:01  m  21 39 47.965156 -44 27 30.72798
 2019-Jan-22 06:02  m  21 39 47.981567 -44 27 30.57431
 2019-Jan-22 06:03  m  21 39 47.997980 -44 27 30.42065
 2019-Jan-22 06:04  m  21 39 48.014397 -44 27 30.26699
 2019-Jan-22 06:05  m  21 39 48.030817 -44 27 30.11333
 2019-Jan-22 06:06  m  21 39 48.047239 -44 27 29.95968
 2019-Jan-22 06:07  m  21 39 48.063664 -44 27 29.80602
 2019-Jan-22 06:08  m  21 39 48.080092 -44 27 29.65238
 2019-Jan-22 06:09  m  21 39 48.096524 -44 27 29.49873
 2019-Jan-22 06:10  m  21 39 48.112957 -44 27 29.34509
 2019-Jan-22 06:11  m  21 39 48.129394 -44 27 29.19145
 2019-Jan-22 06:12  m  21 39 48.145834 -44 27 29.03782
 2019-Jan-22 06:13  m  21 39 48.162277 -44 27 28.88419
 2019-Jan-22 06:14  m  21 39 48.178722 -44 27 28.73056
 2019-Jan-22 06:15  m  21 39 48.195171 -44 27 28.57694
 2019-Jan-22 06:16  m  21 39 48.211622 -44 27 28.42332
 2019-Jan-22 06:17  m  21 39 48.228076 -44 27 28.26970
 2019-Jan-22 06:18  m  21 39 48.244533 -44 27 28.11609
 2019-Jan-22 06:19  m  21 39 48.260993 -44 27 27.96248
